{
    "links": {
        "self": "http://www.neowsapp.com/rest/v1/neo/3739265?api_key=iIulBulltgU6a56xZRHN4H3l9WmuAYTsLGpBGhQ2"
    },
    "id": "3739265",
    "neo_reference_id": "3739265",
    "name": "(2016 AV9)",
    "designation": "2016 AV9",
    "nasa_jpl_url": "http://ssd.jpl.nasa.gov/sbdb.cgi?sstr=3739265",
    "absolute_magnitude_h": 25.2,
    "estimated_diameter": {
        "kilometers": {
            "estimated_diameter_min": 0.0242412481,
            "estimated_diameter_max": 0.0542050786
        },
        "meters": {
            "estimated_diameter_min": 24.2412481101,
            "estimated_diameter_max": 54.2050786336
        },
        "miles": {
            "estimated_diameter_min": 0.0150628086,
            "estimated_diameter_max": 0.0336814639
        },
        "feet": {
            "estimated_diameter_min": 79.5316564495,
            "estimated_diameter_max": 177.8381901842
        }
    },
    "is_potentially_hazardous_asteroid": false,
    "close_approach_data": [
        {
            "close_approach_date": "2016-01-16",
            "close_approach_date_full": "2016-Jan-16 14:37",
            "epoch_date_close_approach": 1452955020000,
            "relative_velocity": {
                "kilometers_per_second": "9.6295046976",
                "kilometers_per_hour": "34666.2169113921",
                "miles_per_hour": "21540.2390580814"
            },
            "miss_distance": {
                "astronomical": "0.0642312187",
                "lunar": "24.9859440743",
                "kilometers": "9608853.505024169",
                "miles": "5970664.7046207722"
            },
            "orbiting_body": "Earth"
        }
    ],
    "orbital_data": {
        "orbit_id": "5",
        "orbit_determination_date": "2017-04-06 08:29:23",
        "first_observation_date": "2016-01-04",
        "last_observation_date": "2016-01-18",
        "data_arc_in_days": 14,
        "observations_used": 14,
        "orbit_uncertainty": "8",
        "minimum_orbit_intersection": ".040845",
        "jupiter_tisserand_invariant": "3.212",
        "epoch_osculation": "2457392.5",
        "eccentricity": ".5997162946675554",
        "semi_major_axis": "2.463378763757419",
        "inclination": "2.453159072385116",
        "ascending_node_longitude": "59.9009256677729",
        "orbital_period": "1412.196778965133",
        "perihelion_distance": ".9860503791940762",
        "perihelion_argument": "82.42827241013768",
        "aphelion_distance": "3.940707148320761",
        "perihelion_time": "2457423.757434380443",
        "mean_anomaly": "352.0317929168444",
        "mean_motion": ".2549219806773743",
        "equinox": "J2000",
        "orbit_class": {
            "orbit_class_type": "APO",
            "orbit_class_description": "Near-Earth asteroid orbits which cross the Earth’s orbit similar to that of 1862 Apollo",
            "orbit_class_range": "a (semi-major axis) > 1.0 AU; q (perihelion) < 1.017 AU"
        }
    },
    "is_sentry_object": false
}